[{"OBJECT_NAME":"STARLINK-31820","OBJECT_ID":"2024-088T","EPOCH":"2026-03-09T11:00:27.814464","MEAN_MOTION":15.30186376,"ECCENTRICITY":0.00012054,"INCLINATION":53.1609,"RA_OF_ASC_NODE":141.2066,"ARG_OF_PERICENTER":67.96,"MEAN_ANOMALY":292.1529,"EPHEMERIS_TYPE":0,"CLASSIFICATION_TYPE":"U","NORAD_CAT_ID":59725,"ELEMENT_SET_NO":999,"REV_AT_EPOCH":10364,"BSTAR":2.8883534e-5,"MEAN_MOTION_DOT":4.96e-6,"MEAN_MOTION_DDOT":0},{"OBJECT_NAME":"CZ-4 DEB","OBJECT_ID":"2003-049H","EPOCH":"2026-03-08T08:27:28.944576","MEAN_MOTION":15.27137095,"ECCENTRICITY":0.00307627,"INCLINATION":98.6284,"RA_OF_ASC_NODE":272.5918,"ARG_OF_PERICENTER":169.0311,"MEAN_ANOMALY":191.1601,"EPHEMERIS_TYPE":0,"CLASSIFICATION_TYPE":"U","NORAD_CAT_ID":35381,"ELEMENT_SET_NO":999,"REV_AT_EPOCH":18390,"BSTAR":0.0032047887,"MEAN_MOTION_DOT":0.00087287,"MEAN_MOTION_DDOT":0}]
